*******************************************************************************
Ephemeris / WWW_USER Wed Apr  4 23:34:58 2018 Pasadena, USA      / Horizons    
*******************************************************************************
Target body name: 90482 Orcus (2004 DW)           {source: JPL#29}
Center body name: Solar System Barycenter (0)     {source: DE431}
Center-site name: BODY CENTER
*******************************************************************************
Start time      : A.D. 2000-Jan-01 00:00:00.0000 TDB
Stop  time      : A.D. 2005-Jan-01 00:00:00.0000 TDB
Step-size       : 7200 minutes
*******************************************************************************
Center geodetic : 0.00000000,0.00000000,0.0000000 {E-lon(deg),Lat(deg),Alt(km)}
Center cylindric: 0.00000000,0.00000000,0.0000000 {E-lon(deg),Dxy(km),Dz(km)}
Center radii    : (undefined)                                                  
Small perturbers: Yes                             {source: SB431-N16}
Output units    : AU-D                                                         
Output type     : GEOMETRIC cartesian states
Output format   : 2 (position and velocity)
Reference frame : ICRF/J2000.0                                                 
Coordinate systm: Ecliptic and Mean Equinox of Reference Epoch                 
*******************************************************************************
Initial IAU76/J2000 heliocentric ecliptic osculating elements (au, days, deg.):
  EPOCH=  2456044.5 ! 2012-Apr-27.00 (TDB)         Residual RMS= .15539        
   EC= .2239836494653336   QR= 30.48746746731042   TP= 2413995.4750650763      
   OM= 268.4546910398095   W=  73.65343381519499   IN= 20.54858482478484       
  Equivalent ICRF heliocentric equatorial cartesian coordinates (au, au/d):
   X=-4.049867964603111E+01  Y= 2.500666391625204E+01  Z=-5.925446354852525E+00
  VX=-9.577823330623901E-04 VY=-1.647504241883546E-03 VZ=-1.084049635946669E-03
Asteroid physical parameters (km, seconds, rotational period in hours):        
   GM= n.a.                RAD= n.a.               ROTPER= 13.188              
   H= 2.2                  G= .150                 B-V= n.a.                   
                           ALBEDO= n.a.            STYP= n.a.                  
*******************************************************************************
JDTDB
   X     Y     Z
   VX    VY    VZ
*******************************************************************************
$$SOE
2451914.500000000 = A.D. 2001-Jan-05 00:00:00.0000 TDB 
  -3.566424169800985E+01  2.808676862086194E+01 -1.363861960648286E+01
  -1.383112475287263E-03 -1.671031442237974E-03 -5.033495016677190E-04
2451919.500000000 = A.D. 2001-Jan-10 00:00:00.0000 TDB 
  -3.567115601997494E+01  2.807841248697989E+01 -1.364113587962548E+01
  -1.382616299797135E-03 -1.671422087166571E-03 -5.031597514924311E-04
2451924.500000000 = A.D. 2001-Jan-15 00:00:00.0000 TDB 
  -3.567806786089831E+01  2.807005440022439E+01 -1.364365120395889E+01
  -1.382120058597702E-03 -1.671812591623038E-03 -5.029699779834770E-04
2451929.500000000 = A.D. 2001-Jan-20 00:00:00.0000 TDB 
  -3.568497722045144E+01  2.806169436129776E+01 -1.364616557936643E+01
  -1.381623751708713E-03 -1.672202955616468E-03 -5.027801811470802E-04
2451934.500000000 = A.D. 2001-Jan-25 00:00:00.0000 TDB 
  -3.569188409830594E+01  2.805333237090232E+01 -1.364867900573149E+01
  -1.381127379149971E-03 -1.672593179155953E-03 -5.025903609894847E-04
2451939.500000000 = A.D. 2001-Jan-30 00:00:00.0000 TDB 
  -3.569878849413351E+01  2.804496842974028E+01 -1.365119148293747E+01
  -1.380630940941364E-03 -1.672983262250545E-03 -5.024005175169822E-04
2451944.500000000 = A.D. 2001-Feb-04 00:00:00.0000 TDB 
  -3.570569040760597E+01  2.803660253851387E+01 -1.365370301086782E+01
  -1.380134437102784E-03 -1.673373204909331E-03 -5.022106507358499E-04
2451949.500000000 = A.D. 2001-Feb-09 00:00:00.0000 TDB 
  -3.571258983839520E+01  2.802823469792523E+01 -1.365621358940599E+01
  -1.379637867654164E-03 -1.673763007141406E-03 -5.020207606523772E-04
2451954.500000000 = A.D. 2001-Feb-14 00:00:00.0000 TDB 
  -3.571948678617319E+01  2.801986490867648E+01 -1.365872321843551E+01
  -1.379141232615482E-03 -1.674152668955861E-03 -5.018308472728700E-04
2451959.500000000 = A.D. 2001-Feb-19 00:00:00.0000 TDB 
  -3.572638125061206E+01  2.801149317146969E+01 -1.366123189783991E+01
  -1.378644532006925E-03 -1.674542190362054E-03 -5.016409106036076E-04
2451964.500000000 = A.D. 2001-Feb-24 00:00:00.0000 TDB 
  -3.573327323138401E+01  2.800311948700687E+01 -1.366373962750274E+01
  -1.378147765848049E-03 -1.674931571368447E-03 -5.014509506509816E-04
2451969.500000000 = A.D. 2001-Mar-01 00:00:00.0000 TDB 
  -3.574016272816133E+01  2.799474385598999E+01 -1.366624640730762E+01
  -1.377650934159082E-03 -1.675320811984388E-03 -5.012609674212881E-04
2451974.500000000 = A.D. 2001-Mar-06 00:00:00.0000 TDB 
  -3.574704974061641E+01  2.798636627912099E+01 -1.366875223713817E+01
  -1.377154036960084E-03 -1.675709912218936E-03 -5.010709609208708E-04
2451979.500000000 = A.D. 2001-Mar-11 00:00:00.0000 TDB 
  -3.575393426842177E+01  2.797798675710176E+01 -1.367125711687806E+01
  -1.376657074271142E-03 -1.676098872081147E-03 -5.008809311560861E-04
2451984.500000000 = A.D. 2001-Mar-16 00:00:00.0000 TDB 
  -3.576081631125000E+01  2.796960529063412E+01 -1.367376104641097E+01
  -1.376160046112613E-03 -1.676487691580033E-03 -5.006908781334169E-04
2451989.500000000 = A.D. 2001-Mar-21 00:00:00.0000 TDB 
  -3.576769586877381E+01  2.796122188041988E+01 -1.367626402562064E+01
  -1.375662952503893E-03 -1.676876370724783E-03 -5.005008018588707E-04
2451994.500000000 = A.D. 2001-Mar-26 00:00:00.0000 TDB 
  -3.577457294066600E+01  2.795283652716078E+01 -1.367876605439081E+01
  -1.375165793465338E-03 -1.677264909524411E-03 -5.003107023389236E-04
2451999.500000000 = A.D. 2001-Mar-31 00:00:00.0000 TDB 
  -3.578144752659945E+01  2.794444923155853E+01 -1.368126713260529E+01
  -1.374668569017025E-03 -1.677653307987989E-03 -5.001205795799116E-04
2452004.500000000 = A.D. 2001-Apr-05 00:00:00.0000 TDB 
  -3.578831962624719E+01  2.793605999431477E+01 -1.368376726014789E+01
  -1.374171279179043E-03 -1.678041566124585E-03 -4.999304335881724E-04
2452009.500000000 = A.D. 2001-Apr-10 00:00:00.0000 TDB 
  -3.579518923928229E+01  2.792766881613114E+01 -1.368626643690246E+01
  -1.373673923971509E-03 -1.678429683943059E-03 -4.997402643701301E-04
2452014.500000000 = A.D. 2001-Apr-15 00:00:00.0000 TDB 
  -3.580205636537799E+01  2.791927569770919E+01 -1.368876466275289E+01
  -1.373176503414490E-03 -1.678817661453149E-03 -4.995500719318660E-04
2452019.500000000 = A.D. 2001-Apr-20 00:00:00.0000 TDB 
  -3.580892100420755E+01  2.791088063975045E+01 -1.369126193758309E+01
  -1.372679017528120E-03 -1.679205498663770E-03 -4.993598562797867E-04
2452024.500000000 = A.D. 2001-Apr-25 00:00:00.0000 TDB 
  -3.581578315544441E+01  2.790248364295638E+01 -1.369375826127701E+01
  -1.372181466332530E-03 -1.679593195584107E-03 -4.991696174201960E-04
2452029.500000000 = A.D. 2001-Apr-30 00:00:00.0000 TDB 
  -3.582264281876207E+01  2.789408470802841E+01 -1.369625363371863E+01
  -1.371683849847858E-03 -1.679980752223363E-03 -4.989793553593916E-04
2452034.500000000 = A.D. 2001-May-05 00:00:00.0000 TDB 
  -3.582949999383411E+01  2.788568383566792E+01 -1.369874805479195E+01
  -1.371186168094001E-03 -1.680368168590704E-03 -4.987890701035756E-04
2452039.500000000 = A.D. 2001-May-10 00:00:00.0000 TDB 
  -3.583635468033425E+01  2.787728102657627E+01 -1.370124152438102E+01
  -1.370688421091916E-03 -1.680755444695532E-03 -4.985987616593318E-04
2452044.500000000 = A.D. 2001-May-15 00:00:00.0000 TDB 
  -3.584320687793631E+01  2.786887628145472E+01 -1.370373404236990E+01
  -1.370190608861588E-03 -1.681142580547058E-03 -4.984084300328784E-04
2452049.500000000 = A.D. 2001-May-20 00:00:00.0000 TDB 
  -3.585005658631420E+01  2.786046960100454E+01 -1.370622560864272E+01
  -1.369692731423333E-03 -1.681529576154580E-03 -4.982180752305481E-04
2452054.500000000 = A.D. 2001-May-25 00:00:00.0000 TDB 
  -3.585690380514190E+01  2.785206098592690E+01 -1.370871622308359E+01
  -1.369194788797500E-03 -1.681916431527411E-03 -4.980276972586783E-04
2452059.500000000 = A.D. 2001-May-30 00:00:00.0000 TDB 
  -3.586374853409355E+01  2.784365043692298E+01 -1.371120588557670E+01
  -1.368696781004501E-03 -1.682303146674850E-03 -4.978372961236384E-04
2452064.500000000 = A.D. 2001-Jun-04 00:00:00.0000 TDB 
  -3.587059077284338E+01  2.783523795469385E+01 -1.371369459600623E+01
  -1.368198708064866E-03 -1.682689721606110E-03 -4.976468718318795E-04
2452069.500000000 = A.D. 2001-Jun-09 00:00:00.0000 TDB 
  -3.587743052106566E+01  2.782682353994058E+01 -1.371618235425644E+01
  -1.367700569999136E-03 -1.683076156330445E-03 -4.974564243898404E-04
2452074.500000000 = A.D. 2001-Jun-14 00:00:00.0000 TDB 
  -3.588426777843485E+01  2.781840719336421E+01 -1.371866916021156E+01
  -1.367202366827908E-03 -1.683462450857101E-03 -4.972659538039848E-04
2452079.500000000 = A.D. 2001-Jun-19 00:00:00.0000 TDB 
  -3.589110254462546E+01  2.780998891566567E+01 -1.372115501375591E+01
  -1.366704098571841E-03 -1.683848605195305E-03 -4.970754600808088E-04
2452084.500000000 = A.D. 2001-Jun-24 00:00:00.0000 TDB 
  -3.589793481931213E+01  2.780156870754589E+01 -1.372363991477382E+01
  -1.366205765251895E-03 -1.684234619354453E-03 -4.968849432268787E-04
2452089.500000000 = A.D. 2001-Jun-29 00:00:00.0000 TDB 
  -3.590476460216958E+01  2.779314656970574E+01 -1.372612386314964E+01
  -1.365707366888138E-03 -1.684620493343364E-03 -4.966944032485703E-04
2452094.500000000 = A.D. 2001-Jul-04 00:00:00.0000 TDB 
  -3.591159189287264E+01  2.778472250284605E+01 -1.372860685876777E+01
  -1.365208903501583E-03 -1.685006227171414E-03 -4.965038401524768E-04
